CBERS 4A                
1 44883U 19093E   26177.95117792  .00001374  00000+0  18249-3 0  9994
2 44883  98.0194 245.3995 0000463 101.0396 259.0869 14.81415491352524
WEILAI 1R               
1 44884U 19093F   26177.92291051  .00003884  00000+0  31043-3 0  9998
2 44884  97.7865 267.8239 0017550   7.1331 353.0139 15.00721448353885
FLORIPASAT-1            
1 44885U 19093G   26177.93949192  .00005893  00000+0  43058-3 0  9997
2 44885  97.7928 272.2402 0012179  41.3282 318.8863 15.03975381354115
SHUNTIAN                
1 44886U 19093H   26177.97883009  .00002041  00000+0  19078-3 0  9993
2 44886  97.8005 266.0894 0012365  38.0708 322.1384 14.95198136353640
ELEKTRO-L 3             
1 44903U 19095A   26177.53815831 -.00000085  00000+0  00000+0 0  9993
2 44903   0.2811  81.9651 0001516   2.5316  99.8706  1.00272481 23801
GONETS-M 14             
1 44905U 19096A   26177.94947642 -.00000015  00000+0 -18072-3 0  9993
2 44905  82.5235  78.5885 0013926 127.3787 232.8563 12.42869884294899
GONETS-M 15             
1 44906U 19096B   26177.97886811 -.00000018  00000+0 -20531-3 0  9993
2 44906  82.5255  79.0334 0015341 150.0974 210.0985 12.42871458294864
GONETS-M 16             
1 44907U 19096C   26178.00491868 -.00000009  00000+0 -13420-3 0  9992
2 44907  82.5201  77.9649 0010157 191.5269 168.5580 12.42891714294853
RS-44 & BREEZE-KM R/B   
1 44909U 19096E   26177.93420375  .00000014  00000+0  25997-5 0  9998
2 44909  82.5226 333.2271 0218470 121.4708 240.7948 12.79749023303597
JILIN-1 KUANFU 01       
1 45016U 20003A   26177.95574520  .00003541  00000+0  21709-3 0  9995
2 45016  97.5030 251.7204 0008149 267.6768  92.3529 15.10773510356809
XINGYUN-2 01            
1 45602U 20028A   26177.93773392  .00003136  00000+0  18704-3 0  9990
2 45602  97.4862 170.1448 0009524 159.8970 200.2637 15.11844354336311
XINGYUN-2 02            
1 45603U 20028B   26177.98427762  .00002391  00000+0  14463-3 0  9993
2 45603  97.5069 183.8038 0009376 232.1780 127.8602 15.11573285336315
HAIYANG-1D              
1 45721U 20036A   26177.94973478  .00000144  00000+0  66692-4 0  9995
2 45721  98.4551 119.4170 0003843 107.2907 252.8699 14.34176477316375
M2 PATHFINDER           
1 45727U 20037E   26177.95543380  .00003141  00000+0  22728-3 0  9999
2 45727  97.8135   9.2964 0012574 118.0539 242.1960 15.04711384326960
GAOFEN DUOMO (GFDM)     
1 45856U 20042A   26177.96361493  .00000495  00000+0  77324-4 0  9994
2 45856  97.7748 237.4942 0012136  46.8140 313.4082 14.76891733322455
ZIYUAN 3-03 (ZY 3-03)   
1 45939U 20051A   26177.98478262  .00004545  00000+0  20600-3 0  9995
2 45939  97.2836 245.3930 0002156 293.7260  66.3749 15.21330302328835
NEMO-HD                 
1 46277U 20061F   26177.97643865  .00011580  00000+0  24920-3 0  9990
2 46277  97.1922 239.8310 0001792  74.5205 285.6242 15.44785585323498
NAPA-1                  
1 46320U 20061BA  26177.98699968  .00080431  00000+0  68557-3 0  9990
2 46320  97.2461 252.4957 0001726 178.1283 181.9986 15.69298374323279
JILIN-1 GAOFEN 3E       
1 46457U 20065D   26177.94603576  .00074198  00000+0  75482-3 0  9999
2 46457  97.2243 230.7869 0012626 127.8071 232.4335 15.64823949321282
JILIN-1 GAOFEN 3F       
1 46458U 20065E   26177.92443395  .00062527  00000+0  71307-3 0  9994
2 46458  97.2198 228.0527 0014114 116.1768 244.0944 15.61915599321220
JILIN-1 GAOFEN 3G       
1 46459U 20065F   26177.82322587  .00114524  00000+0  83140-3 0  9996
2 46459  97.2263 234.9189 0006018  24.1322 336.0223 15.73023044321457
JILIN-1 GAOFEN 3H       
1 46460U 20065G   26177.94458517  .00089882  00000+0  76741-3 0  9991
2 46460  97.2209 231.3115 0003580 282.9060  77.1803 15.69221202321417
HAIYANG-2C              
1 46469U 20066A   26177.99785950 -.00000069  00000+0  10688-4 0  9990
2 46469  65.9956 190.8575 0008522 237.6664 122.3580 13.83376465290858
HJ-2A                   
1 46478U 20067A   26177.92378015  .00001043  00000+0  15682-3 0  9994
2 46478  97.8828 256.0663 0002627 218.6623 141.4399 14.76528521309695
HJ-2B                   
1 46479U 20067B   26177.96038603  .00000310  00000+0  51524-4 0  9997
2 46479  97.8893 257.1315 0001512  99.7605 260.3776 14.76568247309705
GONETS-M 17             
1 46486U 20068A   26177.94965694  .00000090  00000+0  57762-3 0  9997
2 46486  82.4991 341.4284 0022682  16.7767 343.4058 12.42873728260372
GONETS-M 18             
1 46487U 20068B   26177.91331064  .00000112  00000+0  73860-3 0  9995
2 46487  82.4946 340.5652 0019891  13.6296 346.5316 12.42874408260358
