OBJECT_NAME,OBJECT_ID,EPOCH,MEAN_MOTION,ECCENTRICITY,INCLINATION,RA_OF_ASC_NODE,ARG_OF_PERICENTER,MEAN_ANOMALY,EPHEMERIS_TYPE,CLASSIFICATION_TYPE,NORAD_CAT_ID,ELEMENT_SET_NO,REV_AT_EPOCH,BSTAR,MEAN_MOTION_DOT,MEAN_MOTION_DDOT
CBERS 4A,2019-093E,2026-06-26T22:49:41.772288,14.81415491,.00004639,98.0194,245.3995,101.0396,259.0869,0,U,44883,999,35252,.18248678E-3,.1374E-4,0
WEILAI 1R,2019-093F,2026-06-26T22:08:59.468064,15.00721448,.00175503,97.7865,267.8239,7.1331,353.0139,0,U,44884,999,35388,.31042817E-3,.3884E-4,0
FLORIPASAT-1,2019-093G,2026-06-26T22:32:52.101888,15.03975381,.00121799,97.7928,272.2402,41.3282,318.8863,0,U,44885,999,35411,.4305836E-3,.5893E-4,0
SHUNTIAN,2019-093H,2026-06-26T23:29:30.919776,14.95198136,.00123658,97.8005,266.0894,38.0708,322.1384,0,U,44886,999,35364,.19077614E-3,.2041E-4,0
ELEKTRO-L 3,2019-095A,2026-06-26T12:54:56.877984,1.00272481,.0001516,0.2811,81.9651,2.5316,99.8706,0,U,44903,999,2380,0,-.85E-6,0
GONETS-M 14,2019-096A,2026-06-26T22:47:14.762688,12.42869884,.0013926,82.5235,78.5885,127.3787,232.8563,0,U,44905,999,29489,-.18072473E-3,-.15E-6,0
GONETS-M 15,2019-096B,2026-06-26T23:29:34.204704,12.42871458,.00153419,82.5255,79.0334,150.0974,210.0985,0,U,44906,999,29486,-.20530833E-3,-.18E-6,0
GONETS-M 16,2019-096C,2026-06-27T00:07:04.973952,12.42891714,.00101576,82.5201,77.9649,191.5269,168.5580,0,U,44907,999,29485,-.1341981E-3,-.9E-7,0
RS-44 & BREEZE-KM R/B,2019-096E,2026-06-26T22:25:15.204000,12.79749023,.02184701,82.5226,333.2271,121.4708,240.7948,0,U,44909,999,30359,.2599719E-5,.14E-6,0
JILIN-1 KUANFU 01,2020-003A,2026-06-26T22:56:16.385280,15.10773510,.00081493,97.5030,251.7204,267.6768,92.3529,0,U,45016,999,35680,.21709093E-3,.3541E-4,0
XINGYUN-2 01,2020-028A,2026-06-26T22:30:20.210688,15.11844354,.00095241,97.4862,170.1448,159.8970,200.2637,0,U,45602,999,33631,.18703678E-3,.3136E-4,0
XINGYUN-2 02,2020-028B,2026-06-26T23:37:21.586368,15.11573285,.00093764,97.5069,183.8038,232.1780,127.8602,0,U,45603,999,33631,.14462736E-3,.2391E-4,0
HAIYANG-1D,2020-036A,2026-06-26T22:47:37.084992,14.34176477,.00038431,98.4551,119.4170,107.2907,252.8699,0,U,45721,999,31637,.66692387E-4,.144E-5,0
M2 PATHFINDER,2020-037E,2026-06-26T22:55:49.480320,15.04711384,.00125749,97.8135,9.2964,118.0539,242.1960,0,U,45727,999,32696,.22727778E-3,.3141E-4,0
GAOFEN DUOMO (GFDM),2020-042A,2026-06-26T23:07:36.329952,14.76891733,.00121362,97.7748,237.4942,46.8140,313.4082,0,U,45856,999,32245,.77323723E-4,.495E-5,0
ZIYUAN 3-03 (ZY 3-03),2020-051A,2026-06-26T23:38:05.218368,15.21330302,.00021566,97.2836,245.3930,293.7260,66.3749,0,U,45939,999,32883,.20600077E-3,.4545E-4,0
NEMO-HD,2020-061F,2026-06-26T23:26:04.299360,15.44785585,.00017929,97.1922,239.8310,74.5205,285.6242,0,U,46277,999,32349,.24919892E-3,.1158E-3,0
NAPA-1,2020-061BA,2026-06-26T23:41:16.772352,15.69298374,.00017267,97.2461,252.4957,178.1283,181.9986,0,U,46320,999,32327,.68557377E-3,.80431E-3,0
JILIN-1 GAOFEN 3E,2020-065D,2026-06-26T22:42:17.489664,15.64823949,.00126266,97.2243,230.7869,127.8071,232.4335,0,U,46457,999,32128,.75481805E-3,.74198E-3,0
JILIN-1 GAOFEN 3F,2020-065E,2026-06-26T22:11:11.093280,15.61915599,.00141146,97.2198,228.0527,116.1768,244.0944,0,U,46458,999,32122,.71306613E-3,.62527E-3,0
JILIN-1 GAOFEN 3G,2020-065F,2026-06-26T19:45:26.715168,15.73023044,.00060188,97.2263,234.9189,24.1322,336.0223,0,U,46459,999,32145,.83140138E-3,.114524E-2,0
JILIN-1 GAOFEN 3H,2020-065G,2026-06-26T22:40:12.158688,15.69221202,.00035804,97.2209,231.3115,282.9060,77.1803,0,U,46460,999,32141,.76740908E-3,.89882E-3,0
HAIYANG-2C,2020-066A,2026-06-26T23:56:55.060800,13.83376465,.00085226,65.9956,190.8575,237.6664,122.3580,0,U,46469,999,29085,.10688179E-4,-.69E-6,0
HJ-2A,2020-067A,2026-06-26T22:10:14.604960,14.76528521,.00026276,97.8828,256.0663,218.6623,141.4399,0,U,46478,999,30969,.15682306E-3,.1043E-4,0
HJ-2B,2020-067B,2026-06-26T23:02:57.352992,14.76568247,.00015127,97.8893,257.1315,99.7605,260.3776,0,U,46479,999,30970,.51523639E-4,.31E-5,0
GONETS-M 17,2020-068A,2026-06-26T22:47:30.359616,12.42873728,.00226828,82.4991,341.4284,16.7767,343.4058,0,U,46486,999,26037,.57762086E-3,.9E-6,0
GONETS-M 18,2020-068B,2026-06-26T21:55:10.039296,12.42874408,.00198915,82.4946,340.5652,13.6296,346.5316,0,U,46487,999,26035,.73859909E-3,.112E-5,0
